FLOCK 4G-1              
1 62666U 25009BK  26068.75951132  .00013534  00000+0  50654-3 0  9995
2 62666  97.4059 151.3158 0003180 323.1401  36.9619 15.27421081 63725
STARLINK-33691          
1 63462U 25070C   26068.57971455  .00033652  00000+0  12258-2 0  9998
2 63462  43.0015 260.0728 0002174 299.0633  61.0000 15.27606595 52917
